CCSDS_OMM_VERS = 2.0
CREATION_DATE  = 
ORIGINATOR     = 

OBJECT_NAME    = UNKNOWN
OBJECT_ID      = 
CENTER_NAME    = EARTH
REF_FRAME      = TEME
TIME_SYSTEM    = UTC
MEAN_ELEMENT_THEORY = SGP/SGP4

EPOCH          = 2026-03-24T23:42:53.751168
MEAN_MOTION    = 12.62676311
ECCENTRICITY   = .0596209
INCLINATION    = 67.1600
RA_OF_ASC_NODE = 304.0944
ARG_OF_PERICENTER = 140.0394
MEAN_ANOMALY   = 224.6120

EPHEMERIS_TYPE = 0
CLASSIFICATION_TYPE = U
NORAD_CAT_ID   = 81439
ELEMENT_SET_NO = 999
REV_AT_EPOCH   = 27480
BSTAR          = .14208E-2
MEAN_MOTION_DOT = .457E-5
MEAN_MOTION_DDOT = 0

CCSDS_OMM_VERS = 2.0
CREATION_DATE  = 
ORIGINATOR     = 

OBJECT_NAME    = UNKNOWN
OBJECT_ID      = 
CENTER_NAME    = EARTH
REF_FRAME      = TEME
TIME_SYSTEM    = UTC
MEAN_ELEMENT_THEORY = SGP/SGP4

EPOCH          = 2026-03-24T14:42:27.533088
MEAN_MOTION    = 15.22911709
ECCENTRICITY   = .0018707
INCLINATION    = 66.7890
RA_OF_ASC_NODE = 50.4430
ARG_OF_PERICENTER = 8.9061
MEAN_ANOMALY   = 351.2413

EPHEMERIS_TYPE = 0
CLASSIFICATION_TYPE = U
NORAD_CAT_ID   = 81449
ELEMENT_SET_NO = 999
REV_AT_EPOCH   = 64893
BSTAR          = .65112E-2
MEAN_MOTION_DOT = .157164E-2
MEAN_MOTION_DDOT = 0

CCSDS_OMM_VERS = 2.0
CREATION_DATE  = 
ORIGINATOR     = 

OBJECT_NAME    = UNKNOWN
OBJECT_ID      = 
CENTER_NAME    = EARTH
REF_FRAME      = TEME
TIME_SYSTEM    = UTC
MEAN_ELEMENT_THEORY = SGP/SGP4

EPOCH          = 2026-03-23T17:42:16.592256
MEAN_MOTION    = 14.29160562
ECCENTRICITY   = .0146358
INCLINATION    = 98.9499
RA_OF_ASC_NODE = 2.2963
ARG_OF_PERICENTER = 65.0012
MEAN_ANOMALY   = 326.9943

EPHEMERIS_TYPE = 0
CLASSIFICATION_TYPE = U
NORAD_CAT_ID   = 81478
ELEMENT_SET_NO = 999
REV_AT_EPOCH   = 63736
BSTAR          = .15155E-2
MEAN_MOTION_DOT = .4271E-4
MEAN_MOTION_DDOT = 0

CCSDS_OMM_VERS = 2.0
CREATION_DATE  = 
ORIGINATOR     = 

OBJECT_NAME    = UNKNOWN
OBJECT_ID      = 
CENTER_NAME    = EARTH
REF_FRAME      = TEME
TIME_SYSTEM    = UTC
MEAN_ELEMENT_THEORY = SGP/SGP4

EPOCH          = 2026-03-25T12:05:03.080832
MEAN_MOTION    = 13.56562442
ECCENTRICITY   = .0045111
INCLINATION    = 99.9902
RA_OF_ASC_NODE = 323.6508
ARG_OF_PERICENTER = 104.3647
MEAN_ANOMALY   = 15.4626

EPHEMERIS_TYPE = 0
CLASSIFICATION_TYPE = U
NORAD_CAT_ID   = 81488
ELEMENT_SET_NO = 999
REV_AT_EPOCH   = 61056
BSTAR          = .39431E-3
MEAN_MOTION_DOT = .234E-5
MEAN_MOTION_DDOT = 0

CCSDS_OMM_VERS = 2.0
CREATION_DATE  = 
ORIGINATOR     = 

OBJECT_NAME    = UNKNOWN
OBJECT_ID      = 
CENTER_NAME    = EARTH
REF_FRAME      = TEME
TIME_SYSTEM    = UTC
MEAN_ELEMENT_THEORY = SGP/SGP4

EPOCH          = 2026-03-24T00:08:03.414912
MEAN_MOTION    = 13.84974964
ECCENTRICITY   = .0028169
INCLINATION    = 100.3004
RA_OF_ASC_NODE = 352.3839
ARG_OF_PERICENTER = 112.0619
MEAN_ANOMALY   = 268.2045

EPHEMERIS_TYPE = 0
CLASSIFICATION_TYPE = U
NORAD_CAT_ID   = 81497
ELEMENT_SET_NO = 999
REV_AT_EPOCH   = 23031
BSTAR          = .31722E-2
MEAN_MOTION_DOT = .3547E-4
MEAN_MOTION_DDOT = 0

CCSDS_OMM_VERS = 2.0
CREATION_DATE  = 
ORIGINATOR     = 

OBJECT_NAME    = UNKNOWN
OBJECT_ID      = 
CENTER_NAME    = EARTH
REF_FRAME      = TEME
TIME_SYSTEM    = UTC
MEAN_ELEMENT_THEORY = SGP/SGP4

EPOCH          = 2026-03-25T06:29:53.711520
MEAN_MOTION    = 14.47799942
ECCENTRICITY   = .0001849
INCLINATION    = 74.0506
RA_OF_ASC_NODE = 29.4658
ARG_OF_PERICENTER = 197.5041
MEAN_ANOMALY   = 162.6055

EPHEMERIS_TYPE = 0
CLASSIFICATION_TYPE = U
NORAD_CAT_ID   = 81499
ELEMENT_SET_NO = 999
REV_AT_EPOCH   = 49725
BSTAR          = .76994E-3
MEAN_MOTION_DOT = .2822E-4
MEAN_MOTION_DDOT = 0

CCSDS_OMM_VERS = 2.0
CREATION_DATE  = 
ORIGINATOR     = 

OBJECT_NAME    = UNKNOWN
OBJECT_ID      = 
CENTER_NAME    = EARTH
REF_FRAME      = TEME
TIME_SYSTEM    = UTC
MEAN_ELEMENT_THEORY = SGP/SGP4

EPOCH          = 2026-03-24T15:30:56.990880
MEAN_MOTION    = 14.13683453
ECCENTRICITY   = .023437
INCLINATION    = 98.1879
RA_OF_ASC_NODE = 162.4945
ARG_OF_PERICENTER = 213.3573
MEAN_ANOMALY   = 145.2648

EPHEMERIS_TYPE = 0
CLASSIFICATION_TYPE = U
NORAD_CAT_ID   = 81535
ELEMENT_SET_NO = 999
REV_AT_EPOCH   = 40179
BSTAR          = .49988E-3
MEAN_MOTION_DOT = .1186E-4
MEAN_MOTION_DDOT = 0

CCSDS_OMM_VERS = 2.0
CREATION_DATE  = 
ORIGINATOR     = 

OBJECT_NAME    = UNKNOWN
OBJECT_ID      = 
CENTER_NAME    = EARTH
REF_FRAME      = TEME
TIME_SYSTEM    = UTC
MEAN_ELEMENT_THEORY = SGP/SGP4

EPOCH          = 2026-03-25T02:51:09.658656
MEAN_MOTION    = 12.56001152
ECCENTRICITY   = .0023735
INCLINATION    = 101.9673
RA_OF_ASC_NODE = 311.4318
ARG_OF_PERICENTER = 74.9675
MEAN_ANOMALY   = 77.2986

EPHEMERIS_TYPE = 0
CLASSIFICATION_TYPE = U
NORAD_CAT_ID   = 81536
ELEMENT_SET_NO = 999
REV_AT_EPOCH   = 56466
BSTAR          = .33745E-2
MEAN_MOTION_DOT = .51E-5
MEAN_MOTION_DDOT = 0

CCSDS_OMM_VERS = 2.0
CREATION_DATE  = 
ORIGINATOR     = 

OBJECT_NAME    = UNKNOWN
OBJECT_ID      = 
CENTER_NAME    = EARTH
REF_FRAME      = TEME
TIME_SYSTEM    = UTC
MEAN_ELEMENT_THEORY = SGP/SGP4

EPOCH          = 2026-03-25T04:31:20.224992
MEAN_MOTION    = 14.07170013
ECCENTRICITY   = .007712
INCLINATION    = 71.0370
RA_OF_ASC_NODE = 257.2826
ARG_OF_PERICENTER = 356.4804
MEAN_ANOMALY   = 3.5761

EPHEMERIS_TYPE = 0
CLASSIFICATION_TYPE = U
NORAD_CAT_ID   = 81537
ELEMENT_SET_NO = 999
REV_AT_EPOCH   = 63487
BSTAR          = .30222E-4
MEAN_MOTION_DOT = .5E-7
MEAN_MOTION_DDOT = 0

CCSDS_OMM_VERS = 2.0
CREATION_DATE  = 
ORIGINATOR     = 

OBJECT_NAME    = UNKNOWN
OBJECT_ID      = 
CENTER_NAME    = EARTH
REF_FRAME      = TEME
TIME_SYSTEM    = UTC
MEAN_ELEMENT_THEORY = SGP/SGP4

EPOCH          = 2026-03-25T05:46:33.042144
MEAN_MOTION    = 13.18352364
ECCENTRICITY   = .0257451
INCLINATION    = 99.0695
RA_OF_ASC_NODE = 1.8370
ARG_OF_PERICENTER = 131.7301
MEAN_ANOMALY   = 230.6147

EPHEMERIS_TYPE = 0
CLASSIFICATION_TYPE = U
NORAD_CAT_ID   = 81552
ELEMENT_SET_NO = 999
REV_AT_EPOCH   = 59275
BSTAR          = .17602E-2
MEAN_MOTION_DOT = .786E-5
MEAN_MOTION_DDOT = 0

CCSDS_OMM_VERS = 2.0
CREATION_DATE  = 
ORIGINATOR     = 

OBJECT_NAME    = UNKNOWN
OBJECT_ID      = 
CENTER_NAME    = EARTH
REF_FRAME      = TEME
TIME_SYSTEM    = UTC
MEAN_ELEMENT_THEORY = SGP/SGP4

EPOCH          = 2026-03-23T22:43:19.907616
MEAN_MOTION    = 13.31550988
ECCENTRICITY   = .0248937
INCLINATION    = 67.2985
RA_OF_ASC_NODE = 62.0189
ARG_OF_PERICENTER = 9.7144
MEAN_ANOMALY   = 21.1869

EPHEMERIS_TYPE = 0
CLASSIFICATION_TYPE = U
NORAD_CAT_ID   = 81599
ELEMENT_SET_NO = 999
REV_AT_EPOCH   = 59855
BSTAR          = .71853E-3
MEAN_MOTION_DOT = .346E-5
MEAN_MOTION_DDOT = 0

CCSDS_OMM_VERS = 2.0
CREATION_DATE  = 
ORIGINATOR     = 

OBJECT_NAME    = UNKNOWN
OBJECT_ID      = 
CENTER_NAME    = EARTH
REF_FRAME      = TEME
TIME_SYSTEM    = UTC
MEAN_ELEMENT_THEORY = SGP/SGP4

EPOCH          = 2026-03-25T13:28:02.748288
MEAN_MOTION    = 12.81399079
ECCENTRICITY   = .0143244
INCLINATION    = 56.4381
RA_OF_ASC_NODE = 282.2829
ARG_OF_PERICENTER = 280.0420
MEAN_ANOMALY   = 78.4370

EPHEMERIS_TYPE = 0
CLASSIFICATION_TYPE = U
NORAD_CAT_ID   = 81605
ELEMENT_SET_NO = 999
REV_AT_EPOCH   = 19938
BSTAR          = -.11164E-2
MEAN_MOTION_DOT = -.374E-5
MEAN_MOTION_DDOT = 0

