UNKNOWN                 
1 81439U          26083.98812212  .00000457  00000+0  14208-2 0  9999
2 81439  67.1600 304.0944 0596209 140.0394 224.6120 12.62676311274806
UNKNOWN                 
1 81449U          26083.61281867  .00157164  00000+0  65112-2 0  9994
2 81449  66.7890  50.4430 0018707   8.9061 351.2413 15.22911709648933
UNKNOWN                 
1 81478U          26082.73769204  .00004271  00000+0  15155-2 0  9996
2 81478  98.9499   2.2963 0146358  65.0012 326.9943 14.29160562637368
UNKNOWN                 
1 81488U          26084.50350788  .00000234  00000+0  39431-3 0  9996
2 81488  99.9902 323.6508 0045111 104.3647  15.4626 13.56562442610563
UNKNOWN                 
1 81497U          26083.00559508  .00003547  00000+0  31722-2 0  9995
2 81497 100.3004 352.3839 0028169 112.0619 268.2045 13.84974964230319
UNKNOWN                 
1 81499U          26084.27076055  .00002822  00000+0  76994-3 0  9994
2 81499  74.0506  29.4658 0001849 197.5041 162.6055 14.47799942497256
UNKNOWN                 
1 81535U          26083.64649295  .00001186  00000+0  49988-3 0  9992
2 81535  98.1879 162.4945 0234370 213.3573 145.2648 14.13683453401799
UNKNOWN                 
1 81536U          26084.11886179  .00000510  00000+0  33745-2 0  9993
2 81536 101.9673 311.4318 0023735  74.9675  77.2986 12.56001152564660
UNKNOWN                 
1 81537U          26084.18842853  .00000005  00000+0  30222-4 0  9990
2 81537  71.0370 257.2826 0077120 356.4804   3.5761 14.07170013634877
UNKNOWN                 
1 81552U          26084.24066021  .00000786  00000+0  17602-2 0  9990
2 81552  99.0695   1.8370 0257451 131.7301 230.6147 13.18352364592757
UNKNOWN                 
1 81599U          26082.94675819  .00000346  00000+0  71853-3 0  9998
2 81599  67.2985  62.0189 0248937   9.7144  21.1869 13.31550988598557
UNKNOWN                 
1 81605U          26084.56114292 -.00000374  00000+0 -11164-2 0  9990
2 81605  56.4381 282.2829 0143244 280.0420  78.4370 12.81399079199384
